12/16/24

FITS file names are lor_MET_0x633_pwcs2.fits
       e.g.- lor_0449855930_0x633_pwcs2.fits

Average coordinates over both visits

Proxima Cen
   MET      x (px)  y (px)  sigx  sigy   R.A (deg)     Dec (deg)
0449855930 144.738 116.979 0.152 0.098 217.363443584 -62.676359090
0449855931 144.004 118.311 0.129 0.085 217.362917492 -62.676324665
0449855932 143.109 119.819 0.105 0.070 217.362885635 -62.676382283
0449913531 122.843 133.073 0.141 0.099 217.363426385 -62.676305170
0449913532 123.553 132.113 0.128 0.101 217.363267156 -62.676298576
0449913533 124.205 131.142 0.126 0.094 217.362941852 -62.676275021

Average  217.363147017 -62.676324134
          0.000107009    0.000016359 mean error
          0.1768         0.0589      arcsec (dec corrected)

GAIA+JPL 217.36312691  -62.67633601
           0.00002011   -0.00001188  obs - calc
           0.0332       -0.0428      arcsec (dec corrected)


Wolf 359
   MET      x (px)  y (px)  sigx  sigy   R.A (deg)     Dec (deg)
0449933827 125.102 122.607 0.138 0.135 164.094316069   7.001013311
0449933832 124.873 122.597 0.113 0.081 164.094306594   7.001021465
0449933837 125.028 122.461 0.079 0.089 164.094305581   7.001002589
0449955456 141.435 120.760 0.102 0.109 164.094312543   7.001050470
0449955461 141.490 120.174 0.088 0.109 164.094270486   7.000971888
0449955466 141.498 120.193 0.085 0.092 164.094292085   7.000989587

Average  164.094300560   7.001008218
           0.000006885   0.000011084 mean error
           0.0246        0.0399      arcsec (dec corrected)

GAIA+JPL 164.09426369    7.00103505 
           0.00003687   -0.00002683  obs - calc
           0.1317       -0.0966      arcsec (dec corrected)


lor_0449855930 JD 2458961.9214392
lor_0449855931 JD 2458961.9214508
lor_0449855932 JD 2458961.9214624
lor_0449913531 JD 2458962.5881175
lor_0449913532 JD 2458962.5881290
lor_0449913533 JD 2458962.5881406
lor_0449933827 JD 2458962.8229990
lor_0449933832 JD 2458962.8230569
lor_0449933837 JD 2458962.8231148
lor_0449955456 JD 2458963.0733347
lor_0449955461 JD 2458963.0733925
lor_0449955466 JD 2458963.0734504

-----------------
JPL Horizons hourly positions
starting from 2458961.9214392 thru 2458963.0881059
from 13.54653189, -42.01288625, -16.45470344
  to 13.55019059, -42.02096889, -16.45784028
 vel 0.00313608, -0.00692808, -0.00268872   AU/day

Date__(UT)__HR:MN:SC.fff     R.A.___(ICRF)___DEC             delta 
*******************************************************************
$$SOE
 2020-Apr-22 10:06:52.347     287.87127 -20.44346  47.1099607541082
 2020-Apr-22 11:06:52.347     287.87132 -20.44345  47.1102948945548
 2020-Apr-22 12:06:52.347     287.87136 -20.44345  47.1106290347976
 2020-Apr-22 13:06:52.347     287.87141 -20.44344  47.1109631748364
 2020-Apr-22 14:06:52.347     287.87146 -20.44344  47.1112973146713
 2020-Apr-22 15:06:52.347     287.87150 -20.44343  47.1116314543022
 2020-Apr-22 16:06:52.347     287.87155 -20.44342  47.1119655937292
 2020-Apr-22 17:06:52.347     287.87160 -20.44342  47.1122997329523
 2020-Apr-22 18:06:52.347     287.87164 -20.44341  47.1126338719715
 2020-Apr-22 19:06:52.347     287.87169 -20.44341  47.1129680107868
 2020-Apr-22 20:06:52.347     287.87174 -20.44340  47.1133021493981
 2020-Apr-22 21:06:52.347     287.87178 -20.44339  47.1136362878055
 2020-Apr-22 22:06:52.347     287.87183 -20.44339  47.1139704260090
 2020-Apr-22 23:06:52.347     287.87188 -20.44338  47.1143045640085
 2020-Apr-23 00:06:52.347     287.87192 -20.44337  47.1146387018042
 2020-Apr-23 01:06:52.347     287.87197 -20.44337  47.1149728393960
 2020-Apr-23 02:06:52.347     287.87202 -20.44336  47.1153069767839
 2020-Apr-23 03:06:52.347     287.87206 -20.44336  47.1156411139678
 2020-Apr-23 04:06:52.347     287.87211 -20.44335  47.1159752509479
 2020-Apr-23 05:06:52.347     287.87216 -20.44334  47.1163093877241
 2020-Apr-23 06:06:52.347     287.87220 -20.44334  47.1166435242963
 2020-Apr-23 07:06:52.347     287.87225 -20.44333  47.1169776606647
 2020-Apr-23 08:06:52.347     287.87230 -20.44332  47.1173117968292
 2020-Apr-23 09:06:52.347     287.87234 -20.44332  47.1176459327898
 2020-Apr-23 10:06:52.347     287.87239 -20.44331  47.1179800685466
 2020-Apr-23 11:06:52.347     287.87244 -20.44331  47.1183142040994
 2020-Apr-23 12:06:52.347     287.87248 -20.44330  47.1186483394484
 2020-Apr-23 13:06:52.347     287.87253 -20.44329  47.1189824745935
 2020-Apr-23 14:06:52.347     287.87257 -20.44329  47.1193166095348

     JD             x (au)       y (au)       z (au)
2458961.9214392   13.54653189 -42.01288625 -16.45470344  (exact)
2458961.9214508   13.54653193 -42.01288633 -16.45470347
2458961.9214624   13.54653196 -42.01288641 -16.45470350
2458962.5881175   13.54862265 -42.01750505 -16.45649595
2458962.5881290   13.54862268 -42.01750513 -16.45649598
2458962.5881406   13.54862272 -42.01750521 -16.45649601
2458962.8229990   13.54935925 -42.01913233 -16.45712748
2458962.8230569   13.54935944 -42.01913273 -16.45712764
2458962.8231148   13.54935962 -42.01913313 -16.45712779
2458963.0733347   13.55014433 -42.02086667 -16.45780056
2458963.0733925   13.55014451 -42.02086707 -16.45780072
2458963.0734504   13.55014469 -42.02086748 -16.45780088

First row exact, others computed assuming constant velocity.
Total motion in this 27.65 hour period a bit less than 0.01 AU
